API VERSION: 1.2
API SOURCE: NASA/JPL Horizons API



*******************************************************************************
Ephemeris / API_USER Fri Apr  3 11:29:08 2026 Pasadena, USA      / Horizons
*******************************************************************************
Target body name: Jupiter (599)                   {source: jup365_merged}
Center body name: Earth (399)                     {source: DE441}
Center-site name: BODY CENTER
*******************************************************************************
Start time      : A.D. 2032-Jan-07 05:26:59.9997 TDB
Stop  time      : A.D. 2032-Jan-09 05:26:59.9997 TDB
Step-size       : 60 minutes
*******************************************************************************
Center geodetic : 0.0, 0.0, 0.0                   {E-lon(deg),Lat(deg),Alt(km)}
Center cylindric: 0.0, 0.0, 0.0                   {E-lon(deg),Dxy(km),Dz(km)}
Center radii    : 6378.137, 6378.137, 6356.752 km {Equator_a, b, pole_c}
Output units    : AU-D
Calendar mode   : Mixed Julian/Gregorian
Output type     : GEOMETRIC cartesian states
Output format   : 3 (position, velocity, LT, range, range-rate)
EOP file        : eop.260402.p260629
EOP coverage    : DATA-BASED 1962-JAN-20 TO 2026-APR-02. PREDICTS-> 2026-JUN-28
Reference frame : Ecliptic of J2000.0
*******************************************************************************
            JDTDB,            Calendar Date (TDB),                      X,                      Y,                      Z,                     VX,                     VY,                     VZ,                     LT,                     RG,                     RR,
**************************************************************************************************************************************************************************************************************************************************************************
$$SOE
2463238.727083330, A.D. 2032-Jan-07 05:26:59.9997,  1.218176514619019E+00, -6.065927254947750E+00,  1.641351056830239E-04,  2.415826452035839E-02,  6.528197445294707E-03, -1.711788488388988E-04,  3.573334592380448E-02,  6.187037054198691E+00, -1.643851223744550E-03,
2463238.768749997, A.D. 2032-Jan-07 06:26:59.9997,  1.219183036456698E+00, -6.065654982054133E+00,  1.570026625621539E-04,  2.415478306617732E-02,  6.540902463806023E-03, -1.711783675497029E-04,  3.573294926074663E-02,  6.186968374119244E+00, -1.652793761056754E-03,
2463238.810416663, A.D. 2032-Jan-07 07:26:59.9997,  1.220189413147382E+00, -6.065382179652169E+00,  1.498702462414435E-04,  2.415129725296316E-02,  6.553613975033359E-03, -1.711775610066107E-04,  3.573255044481017E-02,  6.186899321280421E+00, -1.661743842138542E-03,
2463238.852083330, A.D. 2032-Jan-07 08:26:59.9997,  1.221195644482197E+00, -6.065108847456551E+00,  1.427378703974849E-04,  2.414780575475739E-02,  6.566332655121624E-03, -1.711764246069244E-04,  3.573214947406497E-02,  6.186829895348030E+00, -1.670702391791884E-03,
2463238.893749997, A.D. 2032-Jan-07 09:26:59.9997,  1.222201730194975E+00, -6.064834985158054E+00,  1.356055487196197E-04,  2.414430715270546E-02,  6.579058973268734E-03, -1.711749623844018E-04,  3.573174634638001E-02,  6.186760095953096E+00, -1.679670151292093E-03,
2463238.935416663, A.D. 2032-Jan-07 10:26:59.9997,  1.223207669959059E+00, -6.064560592432461E+00,  1.284732945513504E-04,  2.414079996764280E-02,  6.591793178574695E-03, -1.711731870092185E-04,  3.573134105946995E-02,  6.186689922699926E+00, -1.688647659183989E-03,
2463238.977083330, A.D. 2032-Jan-07 11:26:59.9997,  1.224213463385498E+00, -6.064285668949897E+00,  1.213411205297589E-04,  2.413728269470126E-02,  6.604535292039990E-03, -1.711711195762225E-04,  3.573093361094574E-02,  6.186619375174869E+00, -1.697635236691032E-03,
2463239.018749997, A.D. 2032-Jan-07 12:26:59.9997,  1.225219110022726E+00, -6.064010214384427E+00,  1.142090382432524E-04,  2.413375383907679E-02,  6.617285104078400E-03, -1.711687891806752E-04,  3.573052399836821E-02,  6.186548452955594E+00, -1.706632978261538E-03,
2463239.060416663, A.D. 2032-Jan-07 13:26:59.9997,  1.226224609357725E+00, -6.063734228423599E+00,  1.070770579132170E-04,  2.413021195203551E-02,  6.630042177775704E-03, -1.711662322867219E-04,  3.573011221930316E-02,  6.186477155620631E+00, -1.715640747658854E-03,
2463239.102083330, A.D. 2032-Jan-07 14:26:59.9997,  1.227229960818692E+00, -6.063457710777762E+00,  9.994518810395799E-05,  2.412665566619325E-02,  6.642805857972307E-03, -1.711634919001267E-04,  3.572969827137683E-02,  6.186405482758981E+00, -1.724658179861586E-03,
2463239.143749997, A.D. 2032-Jan-07 15:26:59.9997,  1.228235163779128E+00, -6.063180661188851E+00,  9.281343546451587E-05,  2.412308372908856E-02,  6.655575286075833E-03, -1.711606165633837E-04,  3.572928215233007E-02,  6.186333433979480E+00, -1.733684688875945E-03,
2463239.185416663, A.D. 2032-Jan-07 16:26:59.9997,  1.229240217563287E+00, -6.062903079438485E+00,  8.568180453064558E-05,  2.411949503408018E-02,  6.668349420322598E-03, -1.711576591977994E-04,  3.572886386007006E-02,  6.186261008919771E+00, -1.742719481377979E-03,
2463239.227083330, A.D. 2032-Jan-07 17:26:59.9997,  1.230245121452829E+00, -6.062624965355065E+00,  7.855029756026374E-05,  2.411588864764323E-02,  6.681127061010471E-03, -1.711546758233337E-04,  3.572844339271795E-02,  6.186188207254539E+00, -1.751761575904064E-03,
2463239.268749997, A.D. 2032-Jan-07 18:26:59.9997,  1.231249874694533E+00, -6.062346318819768E+00,  7.141891443782498E-05,  2.411226383221411E-02,  6.693906880028523E-03, -1.711517241925814E-04,  3.572802074865133E-02,  6.186115028702874E+00, -1.760809827101199E-03,
2463239.310416663, A.D. 2032-Jan-07 19:26:59.9997,  1.232254476508840E+00, -6.062067139771217E+00,  6.428765262969738E-05,  2.410862006384798E-02,  6.706687453822437E-03, -1.711488623797543E-04,  3.572759592654032E-02,  6.186041473034509E+00, -1.769862954344747E-03,
2463239.352083330, A.D. 2032-Jan-07 20:26:59.9997,  1.233258926099033E+00, -6.061787428208729E+00,  5.715650720009989E-05,  2.410495704410516E-02,  6.719467298772720E-03, -1.711461473685725E-04,  3.572716892537627E-02,  6.185967540074810E+00, -1.778919573843516E-03,
2463239.393749997, A.D. 2032-Jan-07 21:26:59.9997,  1.234263222660762E+00, -6.061507184194047E+00,  5.002547088401535E-05,  2.410127470577740E-02,  6.732244907840658E-03, -1.711436336839553E-04,  3.572673974449254E-02,  6.185893229708344E+00, -1.787978233194812E-03,
2463239.435416663, A.D. 2032-Jan-07 22:26:59.9997,  1.235267365391700E+00, -6.061226407851566E+00,  4.289453422225920E-05,  2.409757321229830E-02,  6.745018787270936E-03, -1.711413721110792E-04,  3.572630838357662E-02,  6.185818541881009E+00, -1.797037447241611E-03,
2463239.477083330, A.D. 2032-Jan-07 23:26:59.9997,  1.236271353501024E+00, -6.060945099367015E+00,  3.576368573320379E-05,  2.409385295095187E-02,  6.757787492144587E-03, -1.711394085412048E-04,  3.572587484267378E-02,  6.185743476600636E+00, -1.806095734035377E-03,
2463239.518749997, A.D. 2032-Jan-08 00:26:59.9997,  1.237275186218504E+00, -6.060663258984736E+00,  2.863291214586138E-05,  2.409011452028710E-02,  6.770549659663203E-03, -1.711377829767029E-04,  3.572543912218200E-02,  6.185668033936137E+00, -1.815151649734991E-03,
2463239.560416663, A.D. 2032-Jan-08 01:26:59.9997,  1.238278862802952E+00, -6.060380887003608E+00,  2.150219865806834E-05,  2.408635871244707E-02,  6.783304039220440E-03, -1.711365287179010E-04,  3.572500122283877E-02,  6.185592214015208E+00, -1.824203821383187E-03,
2463239.602083330, A.D. 2032-Jan-08 02:26:59.9997,  1.239282382549845E+00, -6.060097983771822E+00,  1.437152923212209E-05,  2.408258649140048E-02,  6.796049518575262E-03, -1.711356717424132E-04,  3.572456114570050E-02,  6.185516017020752E+00, -1.833250976698453E-03,
2463239.643749997, A.D. 2032-Jan-08 03:26:59.9997,  1.240285744797983E+00, -6.059814549680643E+00,  7.240886904761432E-06,  2.407879896827901E-02,  6.808785145764786E-03, -1.711352302744760E-04,  3.572411889211493E-02,  6.185439443186130E+00, -1.842291970292593E-03,
2463239.685416663, A.D. 2032-Jan-08 04:26:59.9997,  1.241288948935074E+00, -6.059530585157350E+00,  1.102541254357901E-07,  2.407499737511650E-02,  6.821510146745169E-03, -1.711352145295101E-04,  3.572367446368793E-02,  6.185362492789386E+00, -1.851325806047435E-03,
2463239.727083330, A.D. 2032-Jan-08 05:26:59.9997,  1.242291994402215E+00, -6.059246090657518E+00, -7.020386918175541E-06,  2.407118303817609E-02,  6.834223939063590E-03, -1.711356266103055E-04,  3.572322786224517E-02,  6.185285166146628E+00, -1.860351655712400E-03,
2463239.768749997, A.D. 2032-Jan-08 06:26:59.9997,  1.243294880697270E+00, -6.058961066656821E+00, -1.415105395512088E-05,  2.406735735163115E-02,  6.846926142048285E-03, -1.711364605300299E-04,  3.572277908978994E-02,  6.185207463604712E+00, -1.869368874047552E-03,
2463239.810416663, A.D. 2032-Jan-08 07:26:59.9997,  1.244297607377155E+00, -6.058675513642463E+00, -2.128176429768823E-05,  2.406352175149912E-02,  6.859616583920670E-03, -1.711377023490389E-04,  3.572232814845751E-02,  6.185129385533353E+00, -1.878377010928665E-03,
2463239.852083330, A.D. 2032-Jan-08 08:26:59.9997,  1.245300174059025E+00, -6.058389432104372E+00, -2.841253451907338E-05,  2.405967768823664E-02,  6.872295305700029E-03, -1.711393304446160E-04,  3.572187504046703E-02,  6.185050932316778E+00, -1.887375820608424E-03,
2463239.893749997, A.D. 2032-Jan-08 09:26:59.9997,  1.246302580420218E+00, -6.058102822526345E+00, -3.554338013582932E-05,  2.405582659407107E-02,  6.884962560542186E-03, -1.711413159943856E-04,  3.572141976807159E-02,  6.184972104345102E+00, -1.896365267596922E-03,
2463239.935416663, A.D. 2032-Jan-08 10:26:59.9997,  1.247304826196616E+00, -6.057815685377334E+00, -4.267431533055722E-05,  2.405196983769591E-02,  6.897618804914990E-03, -1.711436238575029E-04,  3.572096233350738E-02,  6.184892902005509E+00, -1.905345527133701E-03,
